CCSDS_OMM_VERS = 2.0
CREATION_DATE  = 
ORIGINATOR     = 

OBJECT_NAME    = STARLINK-36180
OBJECT_ID      = 2025-299N
CENTER_NAME    = EARTH
REF_FRAME      = TEME
TIME_SYSTEM    = UTC
MEAN_ELEMENT_THEORY = SGP/SGP4

EPOCH          = 2026-01-12T00:39:53.947008
MEAN_MOTION    = 15.50569189
ECCENTRICITY   = .00016686
INCLINATION    = 42.9985
RA_OF_ASC_NODE = 134.7758
ARG_OF_PERICENTER = 302.1943
MEAN_ANOMALY   = 57.8755

EPHEMERIS_TYPE = 0
CLASSIFICATION_TYPE = U
NORAD_CAT_ID   = 67114
ELEMENT_SET_NO = 999
REV_AT_EPOCH   = 438
BSTAR          = .19134528E-2
MEAN_MOTION_DOT = .113514E-2
MEAN_MOTION_DDOT = 0

CCSDS_OMM_VERS = 2.0
CREATION_DATE  = 
ORIGINATOR     = 

OBJECT_NAME    = STARLINK-35892
OBJECT_ID      = 2025-299P
CENTER_NAME    = EARTH
REF_FRAME      = TEME
TIME_SYSTEM    = UTC
MEAN_ELEMENT_THEORY = SGP/SGP4

EPOCH          = 2026-01-13T08:44:46.903200
MEAN_MOTION    = 15.40724220
ECCENTRICITY   = .00015015
INCLINATION    = 42.9948
RA_OF_ASC_NODE = 127.6086
ARG_OF_PERICENTER = 185.6827
MEAN_ANOMALY   = 174.4013

EPHEMERIS_TYPE = 0
CLASSIFICATION_TYPE = U
NORAD_CAT_ID   = 67115
ELEMENT_SET_NO = 999
REV_AT_EPOCH   = 458
BSTAR          = .93943643E-3
MEAN_MOTION_DOT = .39173E-3
MEAN_MOTION_DDOT = 0

CCSDS_OMM_VERS = 2.0
CREATION_DATE  = 
ORIGINATOR     = 

OBJECT_NAME    = STARLINK-35738
OBJECT_ID      = 2025-299Q
CENTER_NAME    = EARTH
REF_FRAME      = TEME
TIME_SYSTEM    = UTC
MEAN_ELEMENT_THEORY = SGP/SGP4

EPOCH          = 2026-01-13T08:35:06.252000
MEAN_MOTION    = 15.40720542
ECCENTRICITY   = .00012599
INCLINATION    = 42.9980
RA_OF_ASC_NODE = 127.5632
ARG_OF_PERICENTER = 264.3416
MEAN_ANOMALY   = 95.7297

EPHEMERIS_TYPE = 0
CLASSIFICATION_TYPE = U
NORAD_CAT_ID   = 67116
ELEMENT_SET_NO = 999
REV_AT_EPOCH   = 458
BSTAR          = .12620861E-2
MEAN_MOTION_DOT = .52819E-3
MEAN_MOTION_DDOT = 0

CCSDS_OMM_VERS = 2.0
CREATION_DATE  = 
ORIGINATOR     = 

OBJECT_NAME    = STARLINK-35674
OBJECT_ID      = 2025-299R
CENTER_NAME    = EARTH
REF_FRAME      = TEME
TIME_SYSTEM    = UTC
MEAN_ELEMENT_THEORY = SGP/SGP4

EPOCH          = 2026-01-13T08:57:41.303808
MEAN_MOTION    = 15.40716896
ECCENTRICITY   = .00011821
INCLINATION    = 42.9988
RA_OF_ASC_NODE = 127.6848
ARG_OF_PERICENTER = 261.1184
MEAN_ANOMALY   = 98.9538

EPHEMERIS_TYPE = 0
CLASSIFICATION_TYPE = U
NORAD_CAT_ID   = 67117
ELEMENT_SET_NO = 999
REV_AT_EPOCH   = 458
BSTAR          = .78360111E-3
MEAN_MOTION_DOT = .32587E-3
MEAN_MOTION_DDOT = 0

CCSDS_OMM_VERS = 2.0
CREATION_DATE  = 
ORIGINATOR     = 

OBJECT_NAME    = STARLINK-35701
OBJECT_ID      = 2025-299S
CENTER_NAME    = EARTH
REF_FRAME      = TEME
TIME_SYSTEM    = UTC
MEAN_ELEMENT_THEORY = SGP/SGP4

EPOCH          = 2026-01-13T22:00:01.999584
MEAN_MOTION    = 15.40713300
ECCENTRICITY   = .00016398
INCLINATION    = 42.9995
RA_OF_ASC_NODE = 124.0110
ARG_OF_PERICENTER = 257.4348
MEAN_ANOMALY   = 103.5305

EPHEMERIS_TYPE = 0
CLASSIFICATION_TYPE = U
NORAD_CAT_ID   = 67118
ELEMENT_SET_NO = 999
REV_AT_EPOCH   = 593
BSTAR          = -.61162396E-4
MEAN_MOTION_DOT = -.2859E-4
MEAN_MOTION_DDOT = 0

CCSDS_OMM_VERS = 2.0
CREATION_DATE  = 
ORIGINATOR     = 

OBJECT_NAME    = STARLINK-36179
OBJECT_ID      = 2025-299T
CENTER_NAME    = EARTH
REF_FRAME      = TEME
TIME_SYSTEM    = UTC
MEAN_ELEMENT_THEORY = SGP/SGP4

EPOCH          = 2026-01-13T08:54:27.642528
MEAN_MOTION    = 15.40719528
ECCENTRICITY   = .00013084
INCLINATION    = 42.9994
RA_OF_ASC_NODE = 127.6654
ARG_OF_PERICENTER = 246.0273
MEAN_ANOMALY   = 114.0447

EPHEMERIS_TYPE = 0
CLASSIFICATION_TYPE = U
NORAD_CAT_ID   = 67119
ELEMENT_SET_NO = 999
REV_AT_EPOCH   = 458
BSTAR          = .82731132E-3
MEAN_MOTION_DOT = .34434E-3
MEAN_MOTION_DDOT = 0

CCSDS_OMM_VERS = 2.0
CREATION_DATE  = 
ORIGINATOR     = 

OBJECT_NAME    = STARLINK-36217
OBJECT_ID      = 2025-299U
CENTER_NAME    = EARTH
REF_FRAME      = TEME
TIME_SYSTEM    = UTC
MEAN_ELEMENT_THEORY = SGP/SGP4

EPOCH          = 2026-01-13T22:00:01.999584
MEAN_MOTION    = 15.40706673
ECCENTRICITY   = .00012382
INCLINATION    = 42.9998
RA_OF_ASC_NODE = 123.8895
ARG_OF_PERICENTER = 276.9908
MEAN_ANOMALY   = 133.7431

EPHEMERIS_TYPE = 0
CLASSIFICATION_TYPE = U
NORAD_CAT_ID   = 67120
ELEMENT_SET_NO = 999
REV_AT_EPOCH   = 597
BSTAR          = .10213363E-3
MEAN_MOTION_DOT = .3966E-4
MEAN_MOTION_DDOT = 0

CCSDS_OMM_VERS = 2.0
CREATION_DATE  = 
ORIGINATOR     = 

OBJECT_NAME    = STARLINK-36124
OBJECT_ID      = 2025-299V
CENTER_NAME    = EARTH
REF_FRAME      = TEME
TIME_SYSTEM    = UTC
MEAN_ELEMENT_THEORY = SGP/SGP4

EPOCH          = 2026-01-13T14:32:23.103744
MEAN_MOTION    = 15.40725643
ECCENTRICITY   = .00014743
INCLINATION    = 42.9996
RA_OF_ASC_NODE = 125.9814
ARG_OF_PERICENTER = 268.9033
MEAN_ANOMALY   = 91.1654

EPHEMERIS_TYPE = 0
CLASSIFICATION_TYPE = U
NORAD_CAT_ID   = 67121
ELEMENT_SET_NO = 999
REV_AT_EPOCH   = 462
BSTAR          = .95573242E-3
MEAN_MOTION_DOT = .39863E-3
MEAN_MOTION_DDOT = 0

CCSDS_OMM_VERS = 2.0
CREATION_DATE  = 
ORIGINATOR     = 

OBJECT_NAME    = STARLINK-36188
OBJECT_ID      = 2025-299W
CENTER_NAME    = EARTH
REF_FRAME      = TEME
TIME_SYSTEM    = UTC
MEAN_ELEMENT_THEORY = SGP/SGP4

EPOCH          = 2026-01-13T14:38:50.235360
MEAN_MOTION    = 15.40721966
ECCENTRICITY   = .00013807
INCLINATION    = 42.9996
RA_OF_ASC_NODE = 126.0170
ARG_OF_PERICENTER = 266.2336
MEAN_ANOMALY   = 93.8362

EPHEMERIS_TYPE = 0
CLASSIFICATION_TYPE = U
NORAD_CAT_ID   = 67122
ELEMENT_SET_NO = 999
REV_AT_EPOCH   = 462
BSTAR          = .81520453E-3
MEAN_MOTION_DOT = .33926E-3
MEAN_MOTION_DDOT = 0

CCSDS_OMM_VERS = 2.0
CREATION_DATE  = 
ORIGINATOR     = 

OBJECT_NAME    = STARLINK-36151
OBJECT_ID      = 2025-299X
CENTER_NAME    = EARTH
REF_FRAME      = TEME
TIME_SYSTEM    = UTC
MEAN_ELEMENT_THEORY = SGP/SGP4

EPOCH          = 2026-01-13T16:34:46.590528
MEAN_MOTION    = 15.40713300
ECCENTRICITY   = .00011207
INCLINATION    = 42.9990
RA_OF_ASC_NODE = 125.7652
ARG_OF_PERICENTER = 268.5058
MEAN_ANOMALY   = 91.5670

EPHEMERIS_TYPE = 0
CLASSIFICATION_TYPE = U
NORAD_CAT_ID   = 67123
ELEMENT_SET_NO = 999
REV_AT_EPOCH   = 463
BSTAR          = .66088569E-3
MEAN_MOTION_DOT = .27414E-3
MEAN_MOTION_DDOT = 0

CCSDS_OMM_VERS = 2.0
CREATION_DATE  = 
ORIGINATOR     = 

OBJECT_NAME    = STARLINK-36195
OBJECT_ID      = 2025-299Y
CENTER_NAME    = EARTH
REF_FRAME      = TEME
TIME_SYSTEM    = UTC
MEAN_ELEMENT_THEORY = SGP/SGP4

EPOCH          = 2026-01-13T16:18:38.551104
MEAN_MOTION    = 15.40715658
ECCENTRICITY   = .00019274
INCLINATION    = 42.9998
RA_OF_ASC_NODE = 125.6784
ARG_OF_PERICENTER = 261.9239
MEAN_ANOMALY   = 98.1399

EPHEMERIS_TYPE = 0
CLASSIFICATION_TYPE = U
NORAD_CAT_ID   = 67124
ELEMENT_SET_NO = 999
REV_AT_EPOCH   = 463
BSTAR          = .83756741E-3
MEAN_MOTION_DOT = .34862E-3
MEAN_MOTION_DDOT = 0

CCSDS_OMM_VERS = 2.0
CREATION_DATE  = 
ORIGINATOR     = 

OBJECT_NAME    = STARLINK-36219
OBJECT_ID      = 2025-299Z
CENTER_NAME    = EARTH
REF_FRAME      = TEME
TIME_SYSTEM    = UTC
MEAN_ELEMENT_THEORY = SGP/SGP4

EPOCH          = 2026-01-13T22:00:01.999584
MEAN_MOTION    = 15.40722435
ECCENTRICITY   = .00015429
INCLINATION    = 42.9997
RA_OF_ASC_NODE = 124.1304
ARG_OF_PERICENTER = 271.7410
MEAN_ANOMALY   = 39.4403

EPHEMERIS_TYPE = 0
CLASSIFICATION_TYPE = U
NORAD_CAT_ID   = 67125
ELEMENT_SET_NO = 999
REV_AT_EPOCH   = 597
BSTAR          = -.13149265E-3
MEAN_MOTION_DOT = -.5796E-4
MEAN_MOTION_DDOT = 0

